1 08820U 76039A   03156.83814674  .00000017  00000-0  10000-3 0  9485
2 08820 109.8048 177.7172 0044606 303.8210  55.8248  6.38664388376335
